start=new Date('2022-07-18T00:00:00.000Z').valueOf();
sats=[{"BSTAR":"0.00011833000000","GP_ID":"208316084","RA_OF_ASC_NODE":"49.9630","NORAD_CAT_ID":"49138","APOAPSIS":"574.113","ECCENTRICITY":"0.00029870","LAUNCH_DATE":"2021-09-14","OBJECT_ID":"2021-082J","COUNTRY_CODE":"US","OBJECT_TYPE":"PAYLOAD","ELEMENT_SET_NO":"999","MEAN_MOTION":"14.98336678","TLE_LINE1":"1 49138U 21082J   22198.85215249  .00001319  00000-0  11833-3 0  9999","MEAN_ELEMENT_THEORY":"SGP4","CLASSIFICATION_TYPE":"U","PERIAPSIS":"569.961","REF_FRAME":"TEME","EPHEMERIS_TYPE":"0","EPOCH":"2022-07-17T20:27:05.975136","TIME_SYSTEM":"UTC","RCS_SIZE":"LARGE","FILE":"3516364","SITE":"AFWTR","INCLINATION":"70.0007","PERIOD":"96.107","CENTER_NAME":"EARTH","TLE_LINE2":"2 49138  70.0007  49.9630 0002987 252.3113 107.7720 14.98336678 46633","REV_AT_EPOCH":"4663","ARG_OF_PERICENTER":"252.3113","SEMIMAJOR_AXIS":"6950.172","OBJECT_NAME":"STARLINK-3058","MEAN_ANOMALY":"107.7720","DECAY_DATE":null,"MEAN_MOTION_DDOT":"0.0000000000000","MEAN_MOTION_DOT":"0.00001319"},{"CLASSIFICATION_TYPE":"U","PERIAPSIS":"575.288","REF_FRAME":"TEME","EPHEMERIS_TYPE":"0","EPOCH":"2022-07-17T17:36:45.952416","MEAN_ELEMENT_THEORY":"SGP4","SITE":"AFWTR","INCLINATION":"69.9989","PERIOD":"96.213","CENTER_NAME":"EARTH","TLE_LINE2":"2 49139  69.9989   9.7386 0002680 273.8586  86.2266 14.96684129 47614","REV_AT_EPOCH":"4761","RCS_SIZE":"LARGE","TIME_SYSTEM":"UTC","FILE":"3516387","OBJECT_NAME":"STARLINK-3057","MEAN_ANOMALY":"86.2266","DECAY_DATE":null,"MEAN_MOTION_DDOT":"0.0000000000000","MEAN_MOTION_DOT":"0.00010638","ARG_OF_PERICENTER":"273.8586","SEMIMAJOR_AXIS":"6955.287","RA_OF_ASC_NODE":"9.7386","GP_ID":"208339425","BSTAR":"0.00093675000000","ECCENTRICITY":"0.00026800","LAUNCH_DATE":"2021-09-14","OBJECT_ID":"2021-082K","NORAD_CAT_ID":"49139","APOAPSIS":"579.016","OBJECT_TYPE":"PAYLOAD","COUNTRY_CODE":"US","ELEMENT_SET_NO":"999","MEAN_MOTION":"14.96684129","TLE_LINE1":"1 49139U 21082K   22198.73386519  .00010638  00000-0  93675-3 0  9994"},{"COUNTRY_CODE":"US","OBJECT_TYPE":"PAYLOAD","TLE_LINE1":"1 49140U 21082L   22198.72410093  .00002891  00000-0  26045-3 0  9999","MEAN_MOTION":"14.96723995","ELEMENT_SET_NO":"999","BSTAR":"0.00026045000000","GP_ID":"208340175","RA_OF_ASC_NODE":"9.7623","APOAPSIS":"579.248","NORAD_CAT_ID":"49140","OBJECT_ID":"2021-082L","LAUNCH_DATE":"2021-09-14","ECCENTRICITY":"0.00031910","SEMIMAJOR_AXIS":"6955.164","ARG_OF_PERICENTER":"265.1214","MEAN_MOTION_DDOT":"0.0000000000000","MEAN_MOTION_DOT":"0.00002891","DECAY_DATE":null,"MEAN_ANOMALY":"94.9580","OBJECT_NAME":"STARLINK-3118","MEAN_ELEMENT_THEORY":"SGP4","EPOCH":"2022-07-17T17:22:42.320352","EPHEMERIS_TYPE":"0","REF_FRAME":"TEME","CLASSIFICATION_TYPE":"U","PERIAPSIS":"574.809","FILE":"3516387","TIME_SYSTEM":"UTC","RCS_SIZE":"LARGE","REV_AT_EPOCH":"4761","TLE_LINE2":"2 49140  69.9992   9.7623 0003191 265.1214  94.9580 14.96723995 47614","CENTER_NAME":"EARTH","PERIOD":"96.210","INCLINATION":"69.9992","SITE":"AFWTR"},{"RA_OF_ASC_NODE":"49.9663","BSTAR":"0.00011371000000","GP_ID":"208340417","ECCENTRICITY":"0.00030700","LAUNCH_DATE":"2021-09-14","OBJECT_ID":"2021-082M","NORAD_CAT_ID":"49141","APOAPSIS":"574.169","OBJECT_TYPE":"PAYLOAD","COUNTRY_CODE":"US","ELEMENT_SET_NO":"999","MEAN_MOTION":"14.98337456","TLE_LINE1":"1 49141U 21082M   22198.84738720  .00001264  00000-0  11371-3 0  9992","PERIAPSIS":"569.901","CLASSIFICATION_TYPE":"U","EPHEMERIS_TYPE":"0","REF_FRAME":"TEME","EPOCH":"2022-07-17T20:20:14.254080","MEAN_ELEMENT_THEORY":"SGP4","INCLINATION":"70.0003","SITE":"AFWTR","CENTER_NAME":"EARTH","PERIOD":"96.107","TLE_LINE2":"2 49141  70.0003  49.9663 0003070 254.5280 105.5540 14.98337456 47836","REV_AT_EPOCH":"4783","TIME_SYSTEM":"UTC","RCS_SIZE":"LARGE","FILE":"3516387","OBJECT_NAME":"STARLINK-3093","MEAN_ANOMALY":"105.5540","DECAY_DATE":null,"MEAN_MOTION_DOT":"0.00001264","MEAN_MOTION_DDOT":"0.0000000000000","ARG_OF_PERICENTER":"254.5280","SEMIMAJOR_AXIS":"6950.170"},{"ARG_OF_PERICENTER":"259.9815","SEMIMAJOR_AXIS":"6955.186","OBJECT_NAME":"STARLINK-3042","MEAN_ANOMALY":"100.0990","DECAY_DATE":null,"MEAN_MOTION_DDOT":"0.0000000000000","MEAN_MOTION_DOT":"0.00001087","MEAN_ELEMENT_THEORY":"SGP4","PERIAPSIS":"574.869","CLASSIFICATION_TYPE":"U","REF_FRAME":"TEME","EPHEMERIS_TYPE":"0","EPOCH":"2022-07-17T17:15:40.127616","RCS_SIZE":"LARGE","TIME_SYSTEM":"UTC","FILE":"3516364","SITE":"AFWTR","INCLINATION":"70.0006","CENTER_NAME":"EARTH","PERIOD":"96.211","TLE_LINE2":"2 49142  70.0006   9.7870 0003136 259.9815 100.0990 14.96716946 47618","REV_AT_EPOCH":"4761","COUNTRY_CODE":"US","OBJECT_TYPE":"PAYLOAD","ELEMENT_SET_NO":"999","MEAN_MOTION":"14.96716946","TLE_LINE1":"1 49142U 21082N   22198.71921444  .00001087  00000-0  10295-3 0  9993","BSTAR":"0.00010295000000","GP_ID":"208316520","RA_OF_ASC_NODE":"9.7870","NORAD_CAT_ID":"49142","APOAPSIS":"579.232","ECCENTRICITY":"0.00031360","LAUNCH_DATE":"2021-09-14","OBJECT_ID":"2021-082N"},{"SEMIMAJOR_AXIS":"6955.161","ARG_OF_PERICENTER":"255.3307","MEAN_MOTION_DDOT":"0.0000000000000","MEAN_MOTION_DOT":"0.00000345","DECAY_DATE":null,"MEAN_ANOMALY":"104.7490","OBJECT_NAME":"STARLINK-3109","FILE":"3516364","TIME_SYSTEM":"UTC","RCS_SIZE":"LARGE","REV_AT_EPOCH":"4711","TLE_LINE2":"2 49143  69.9992  29.9103 0003257 255.3307 104.7490 14.96724800 47112","PERIOD":"96.210","CENTER_NAME":"EARTH","INCLINATION":"69.9992","SITE":"AFWTR","MEAN_ELEMENT_THEORY":"SGP4","EPOCH":"2022-07-17T18:31:47.085600","EPHEMERIS_TYPE":"0","REF_FRAME":"TEME","CLASSIFICATION_TYPE":"U","PERIAPSIS":"574.761","TLE_LINE1":"1 49143U 21082P   22198.77207275  .00000345  00000-0  38119-4 0  9991","MEAN_MOTION":"14.96724800","ELEMENT_SET_NO":"999","COUNTRY_CODE":"US","OBJECT_TYPE":"PAYLOAD","APOAPSIS":"579.292","NORAD_CAT_ID":"49143","OBJECT_ID":"2021-082P","LAUNCH_DATE":"2021-09-14","ECCENTRICITY":"0.00032570","GP_ID":"208316083","BSTAR":"0.00003811900000","RA_OF_ASC_NODE":"29.9103"},{"APOAPSIS":"574.214","NORAD_CAT_ID":"49144","LAUNCH_DATE":"2021-09-14","OBJECT_ID":"2021-082Q","ECCENTRICITY":"0.00031110","GP_ID":"208340675","BSTAR":"0.00004296700000","RA_OF_ASC_NODE":"50.1646","MEAN_MOTION":"14.98331842","TLE_LINE1":"1 49144U 21082Q   22198.77586165  .00000420  00000-0  42967-4 0  9990","ELEMENT_SET_NO":"999","COUNTRY_CODE":"US","OBJECT_TYPE":"PAYLOAD","RCS_SIZE":"LARGE","TIME_SYSTEM":"UTC","FILE":"3516387","TLE_LINE2":"2 49144  70.0001  50.1646 0003111 261.4964  98.5843 14.98331842 46620","REV_AT_EPOCH":"4662","INCLINATION":"70.0001","SITE":"AFWTR","PERIOD":"96.107","CENTER_NAME":"EARTH","MEAN_ELEMENT_THEORY":"SGP4","REF_FRAME":"TEME","EPHEMERIS_TYPE":"0","EPOCH":"2022-07-17T18:37:14.446560","CLASSIFICATION_TYPE":"U","PERIAPSIS":"569.890","ARG_OF_PERICENTER":"261.4964","SEMIMAJOR_AXIS":"6950.187","DECAY_DATE":null,"MEAN_MOTION_DOT":"0.00000420","MEAN_MOTION_DDOT":"0.0000000000000","OBJECT_NAME":"STARLINK-3100","MEAN_ANOMALY":"98.5843"},{"COUNTRY_CODE":"US","OBJECT_TYPE":"PAYLOAD","ELEMENT_SET_NO":"999","TLE_LINE1":"1 49145U 21082R   22198.77343611  .00024410  00000-0  21397-2 0  9995","MEAN_MOTION":"14.96598431","BSTAR":"0.00213970000000","GP_ID":"208340917","RA_OF_ASC_NODE":"9.6589","NORAD_CAT_ID":"49145","APOAPSIS":"579.116","ECCENTRICITY":"0.00024420","OBJECT_ID":"2021-082R","LAUNCH_DATE":"2021-09-14","SEMIMAJOR_AXIS":"6955.553","ARG_OF_PERICENTER":"262.8077","MEAN_ANOMALY":"97.2803","OBJECT_NAME":"STARLINK-3119","MEAN_MOTION_DOT":"0.00024410","MEAN_MOTION_DDOT":"0.0000000000000","DECAY_DATE":null,"MEAN_ELEMENT_THEORY":"SGP4","CLASSIFICATION_TYPE":"U","PERIAPSIS":"575.719","EPOCH":"2022-07-17T18:33:44.879904","REF_FRAME":"TEME","EPHEMERIS_TYPE":"0","FILE":"3516387","TIME_SYSTEM":"UTC","RCS_SIZE":"LARGE","PERIOD":"96.218","CENTER_NAME":"EARTH","SITE":"AFWTR","INCLINATION":"69.9972","REV_AT_EPOCH":"4761","TLE_LINE2":"2 49145  69.9972   9.6589 0002442 262.8077  97.2803 14.96598431 47615"},{"BSTAR":"0.00008361100000","GP_ID":"208339176","RA_OF_ASC_NODE":"29.9240","APOAPSIS":"579.049","NORAD_CAT_ID":"49146","OBJECT_ID":"2021-082S","LAUNCH_DATE":"2021-09-14","ECCENTRICITY":"0.00029150","COUNTRY_CODE":"US","OBJECT_TYPE":"PAYLOAD","TLE_LINE1":"1 49146U 21082S   22198.76721728  .00000866  00000-0  83611-4 0  9992","MEAN_MOTION":"14.96726468","ELEMENT_SET_NO":"999","MEAN_ELEMENT_THEORY":"SGP4","EPOCH":"2022-07-17T18:24:47.572992","EPHEMERIS_TYPE":"0","REF_FRAME":"TEME","CLASSIFICATION_TYPE":"U","PERIAPSIS":"574.994","FILE":"3516387","TIME_SYSTEM":"UTC","RCS_SIZE":"LARGE","REV_AT_EPOCH":"4827","TLE_LINE2":"2 49146  70.0007  29.9240 0002915 261.2178  98.8650 14.96726468 48270","PERIOD":"96.210","CENTER_NAME":"EARTH","INCLINATION":"70.0007","SITE":"AFWTR","SEMIMAJOR_AXIS":"6955.156","ARG_OF_PERICENTER":"261.2178","MEAN_MOTION_DDOT":"0.0000000000000","MEAN_MOTION_DOT":"0.00000866","DECAY_DATE":null,"MEAN_ANOMALY":"98.8650","OBJECT_NAME":"STARLINK-3116"},{"SEMIMAJOR_AXIS":"6955.172","ARG_OF_PERICENTER":"262.6291","MEAN_ANOMALY":"97.4543","OBJECT_NAME":"STARLINK-3071","MEAN_MOTION_DDOT":"0.0000000000000","MEAN_MOTION_DOT":"-0.00000302","DECAY_DATE":null,"FILE":"3516387","TIME_SYSTEM":"UTC","RCS_SIZE":"LARGE","PERIOD":"96.210","CENTER_NAME":"EARTH","SITE":"AFWTR","INCLINATION":"70.0009","REV_AT_EPOCH":"4761","TLE_LINE2":"2 49147  70.0009   9.7939 0002853 262.6291  97.4543 14.96721421 47613","MEAN_ELEMENT_THEORY":"SGP4","CLASSIFICATION_TYPE":"U","PERIAPSIS":"575.052","EPOCH":"2022-07-17T17:08:40.179552","EPHEMERIS_TYPE":"0","REF_FRAME":"TEME","ELEMENT_SET_NO":"999","TLE_LINE1":"1 49147U 21082T   22198.71435393 -.00000302  00000-0 -18402-4 0  9991","MEAN_MOTION":"14.96721421","COUNTRY_CODE":"US","OBJECT_TYPE":"PAYLOAD","NORAD_CAT_ID":"49147","APOAPSIS":"579.021","ECCENTRICITY":"0.00028530","OBJECT_ID":"2021-082T","LAUNCH_DATE":"2021-09-14","BSTAR":"-0.00001840200000","GP_ID":"208339426","RA_OF_ASC_NODE":"9.7939"}];
